IRIDIUM 116             
1 43072U 17083C   25296.62994380  .00000493  00000+0  16893-3 0  9995
2 43072  86.3956  60.8761 0001667  92.3827 267.7559 14.34216598410261
IRIDIUM 130             
1 43073U 17083D   25296.59823016  .00000155  00000+0  48111-4 0  9993
2 43073  86.3965  61.1416 0001802  85.4248 274.7154 14.34216327410207
IRIDIUM 151             
1 43074U 17083E   25296.43332411  .00000071  00000+0  18162-4 0  9991
2 43074  86.3962  61.0105 0001844  95.3049 264.8357 14.34217102410201
IRIDIUM 134             
1 43075U 17083F   25296.61091016  .00000581  00000+0  20033-3 0  9990
2 43075  86.3964  60.9411 0001926  86.9395 273.2021 14.34213847410195
IRIDIUM 137             
1 43076U 17083G   25296.41429558  .00000321  00000+0  10768-3 0  9991
2 43076  86.3963  61.1112 0001658 106.8382 253.2995 14.34216509410237
IRIDIUM 141             
1 43077U 17083H   25296.89633407  .00000256  00000+0  84254-4 0  9993
2 43077  86.3960  60.7535 0002175  94.2723 265.8721 14.34217309410306
IRIDIUM 153             
1 43078U 17083J   25296.49967064  .00000133  00000+0  40508-4 0  9997
2 43078  86.4011  29.4027 0002449  92.1935 267.9542 14.34217053411355
IRIDIUM 131             
1 43079U 17083K   25296.39526925  .00000301  00000+0  10027-3 0  9993
2 43079  86.3965  61.1334 0002127  94.3731 265.7707 14.34216487410165
